STARLINK-31882          
1 59855U 24097W   26068.53533116 -.00000307  00000+0 -16355-5 0  9999
2 59855  43.0030 268.2570 0000852 237.0873 122.9896 15.27575603101975
YAOGAN-43 01D           
1 60461U 24148D   26068.43560480  .00010676  00000+0  37766-3 0  9999
2 60461  35.0010  61.7102 0002556 326.2473  33.8080 15.28369377 87008
